[{"OBJECT_NAME":"GEESAT-3 10","OBJECT_ID":"2024-159K","EPOCH":"2026-03-09T21:50:43.608480","MEAN_MOTION":14.83818369,"ECCENTRICITY":0.00038048,"INCLINATION":49.9979,"RA_OF_ASC_NODE":183.5707,"ARG_OF_PERICENTER":94.3081,"MEAN_ANOMALY":265.8292,"EPHEMERIS_TYPE":0,"CLASSIFICATION_TYPE":"U","NORAD_CAT_ID":61020,"ELEMENT_SET_NO":999,"REV_AT_EPOCH":8176,"BSTAR":0.00041621314,"MEAN_MOTION_DOT":3.261e-5,"MEAN_MOTION_DDOT":0},{"OBJECT_NAME":"FASTRAC 1 (USA 222)","OBJECT_ID":"2010-062F","EPOCH":"2026-03-09T22:37:21.981792","MEAN_MOTION":14.8506369,"ECCENTRICITY":0.00166732,"INCLINATION":71.9689,"RA_OF_ASC_NODE":357.7398,"ARG_OF_PERICENTER":296.539,"MEAN_ANOMALY":63.4066,"EPHEMERIS_TYPE":0,"CLASSIFICATION_TYPE":"U","NORAD_CAT_ID":37227,"ELEMENT_SET_NO":999,"REV_AT_EPOCH":35113,"BSTAR":0.00019116608,"MEAN_MOTION_DOT":1.578e-5,"MEAN_MOTION_DDOT":0}]
